STARLINK-31406          
1 59017U 24036V   26068.39466612 -.00002258  00000+0 -64127-4 0  9998
2 59017  53.1595  66.3225 0001213  92.8597 267.2543 15.30195857115463
TEVEL2-1                
1 63217U 25052H   26068.64782323  .00020683  00000+0  70600-3 0  9994
2 63217  97.3991 324.7682 0004767 104.8919 255.2849 15.30341923 54855
